[{"OBJECT_NAME":"TRANSPORTER-10 OBJECT AG","OBJECT_ID":"2024-043AG","EPOCH":"2026-03-09T22:12:45.387648","MEAN_MOTION":15.30759727,"ECCENTRICITY":0.00093005,"INCLINATION":97.5471,"RA_OF_ASC_NODE":205.7101,"ARG_OF_PERICENTER":226.5958,"MEAN_ANOMALY":133.4509,"EPHEMERIS_TYPE":0,"CLASSIFICATION_TYPE":"U","NORAD_CAT_ID":59128,"ELEMENT_SET_NO":999,"REV_AT_EPOCH":11192,"BSTAR":0.00032170115,"MEAN_MOTION_DOT":9.498e-5,"MEAN_MOTION_DDOT":0},{"OBJECT_NAME":"STARLINK-35995","OBJECT_ID":"2025-278AC","EPOCH":"2026-03-09T12:24:38.564928","MEAN_MOTION":15.27624209,"ECCENTRICITY":0.00019941,"INCLINATION":43.0049,"RA_OF_ASC_NODE":115.2556,"ARG_OF_PERICENTER":292.3368,"MEAN_ANOMALY":67.7273,"EPHEMERIS_TYPE":0,"CLASSIFICATION_TYPE":"U","NORAD_CAT_ID":66817,"ELEMENT_SET_NO":999,"REV_AT_EPOCH":1518,"BSTAR":0.0011625031,"MEAN_MOTION_DOT":0.0003191,"MEAN_MOTION_DDOT":0}]
